NESS                    
1 58020U 23155E   26068.76452457  .00019469  00000+0  74047-3 0  9996
2 58020  97.5941 152.6141 0006891 179.8776 180.2465 15.26794015133307
STARLINK-33555          
1 62104U 24220S   26068.38920071  .00035873  00000+0  13059-2 0  9990
2 62104  42.9997 207.3737 0001451 264.8073  95.2613 15.27602636 73111
